satname,norad_id,inclination_deg,eccentricity,mean_motion_rev_per_day,perigee_km,apogee_km,l1,l2
STARLINK-1422,45696,53.0553,0.0001374,15.06410621,546.2274678749745,548.1305447135046,1 45696U 20035AR  25278.50939166  .00001497  00000+0  11932-3 0  9992,2 45696  53.0553  33.2517 0001374  88.2979 271.8167 15.06410621295477
STARLINK-1351,45697,53.0567,0.0001315,15.06416462,546.2504280379299,548.0717814394748,1 45697U 20035AS  25278.48544537  .00014434  00000+0  98550-3 0  9990,2 45697  53.0567  13.3567 0001315  79.2763 280.8374 15.06416462295764
STARLINK-1398,45699,53.053,0.000174,15.44878514,430.550140363237,432.91997583945613,1 45699U 20035AU  25278.49025318  .00032654  00000+0  69048-3 0  9998,2 45699  53.0530 340.6060 0001740 228.0054 132.0804 15.44878514296229
STARLINK-1400,45700,53.0549,0.0001438,15.06406428,546.1959948244803,548.1877194037861,1 45700U 20035AV  25278.52598457  .00018650  00000+0  12674-2 0  9996,2 45700  53.0549  13.1784 0001438  88.1880 271.9274 15.06406428295764
STARLINK-1403,45701,53.0563,0.000167,15.0647695,545.8192334845462,548.1322211354673,1 45701U 20035AW  25278.48906490  .00008809  00000+0  60827-3 0  9991,2 45701  53.0563  13.3408 0001670 122.2764 237.8387 15.06476950295757
STARLINK-1407,45703,53.0444,0.0009324,15.36302177,450.6822701274896,463.42853692158224,1 45703U 20035AY  25278.44081791  .00028230  00000+0  79295-3 0  9996,2 45703  53.0444 338.1304 0009324 303.9232  56.0882 15.36302177296251
STARLINK-1411,45706,53.056,0.0001858,15.32907059,465.87232322061027,468.41602970578333,1 45706U 20035BB  25278.48547256  .00131163  00000+0  40100-2 0  9998,2 45706  53.0560   4.6992 0001858  38.0018 322.1113 15.32907059295870
STARLINK-1423,45710,53.0554,0.0001411,15.06421147,546.1695886506113,548.1239037237847,1 45710U 20035BF  25278.51492884  .00016374  00000+0  11149-2 0  9990,2 45710  53.0554  13.2288 0001411 102.9481 257.1665 15.06421147295769
STARLINK-1433,45711,53.0556,0.0001281,15.06410795,546.2913401035239,548.0656059277098,1 45711U 20035BG  25278.49650664  .00016017  00000+0  10914-2 0  9993,2 45711  53.0556  13.3086 0001281 101.0745 259.0388 15.06410795295756
STARLINK-1434,45712,53.0521,8.03e-05,15.13172512,525.9777953396815,527.0866852196714,1 45712U 20035BH  25278.46198987  .00028164  00000+0  15799-2 0  9998,2 45712  53.0521  11.0486 0000803 327.5726  32.5217 15.13172512295790
STARLINK-1465,45731,53.0521,0.000118,15.06395353,546.4086075501582,548.0429931710432,1 45731U 20038B   25278.19794689  .00002496  00000+0  18644-3 0  9996,2 45731  53.0521 214.6410 0001180 101.7009 258.4113 15.06395353292753
STARLINK-1471,45735,53.0511,0.0003797,15.3954316,444.8675782944856,450.05093609219875,1 45735U 20038F   25277.68922131  .00026963  00000+0  68323-3 0  9992,2 45735  53.0511 163.6132 0003797 102.2806 257.8623 15.39543160293439
STARLINK-1474,45738,53.0374,0.0005557,15.62560677,376.5076987084567,384.01898484831054,1 45738U 20038J   25277.95371848  .00072618  00000+0  79733-3 0  9993,2 45738  53.0374 124.4135 0005557 168.7597 191.3541 15.62560677294000
STARLINK-1475,45739,53.0517,0.0004668,15.64779623,370.72079675522946,377.02447295032925,1 45739U 20038K   25278.00002315  .00272046  00000+0  26576-2 0  9994,2 45739  53.0517  91.8575 0004668 146.8900 243.9153 15.64779623  5897
STARLINK-1480,45741,53.0537,0.0001271,15.0640488,546.3163915807545,548.0768113822523,1 45741U 20038M   25278.51125253  .00010688  00000+0  73525-3 0  9999,2 45741  53.0537 213.2438 0001271  84.6474 275.4660 15.06404880292811
STARLINK-1500,45744,53.0408,0.0005483,15.26242197,483.2936989158152,490.8220716270025,1 45744U 20038Q   25278.51213862  .00030647  00000+0  11757-2 0  9991,2 45744  53.0408 195.7989 0005483 112.8074 247.3503 15.26242197293059
STARLINK-1504,45746,53.029,0.0006689,15.36329204,452.4032338819061,461.5472470371924,1 45746U 20038S   25278.38991933  .00038163  00000+0  10665-2 0  9998,2 45746  53.0290 163.1446 0006689  88.5483 271.6285 15.36329204293490
STARLINK-1506,45747,53.0501,0.0005073,15.2037004,501.23190769088706,508.2152580382617,1 45747U 20038T   25278.10326362  .00040979  00000+0  18625-2 0  9999,2 45747  53.0501 199.0485 0005073 134.7552 225.3857 15.20370040292974
STARLINK-1464,45751,53.0538,0.0001026,15.06394269,546.5185801193629,547.9396652477362,1 45751U 20038X   25278.18136226  .00015357  00000+0  10477-2 0  9999,2 45751  53.0538 194.7226 0001026 114.7698 245.3398 15.06394269293041
STARLINK-1477,45754,53.0538,0.0001086,15.06398618,546.4637002590898,547.9678868858527,1 45754U 20038AA  25278.06339608  .00003976  00000+0  28565-3 0  9990,2 45754  53.0538 195.2507 0001086 118.8434 241.2664 15.06398618293022
STARLINK-1478,45755,53.0527,0.0001058,15.06395399,546.4929560071405,547.958362745866,1 45755U 20038AB  25278.14817925  .00000450  00000+0  49118-4 0  9995,2 45755  53.0527 194.8744 0001058  99.6289 260.4819 15.06395399293020
STARLINK-1484,45756,53.0157,0.0004741,15.55674561,396.9788663744257,403.4060783801333,1 45756U 20038AC  25277.89734235  .00111061  00000+0  15715-2 0  9994,2 45756  53.0157 111.5090 0004741 141.0159 219.1193 15.55674561294178
STARLINK-1493,45759,53.0538,0.0001477,15.06407445,546.1658695677061,548.2116107913553,1 45759U 20038AF  25278.46884904  .00007843  00000+0  54475-3 0  9999,2 45759  53.0538 193.4331 0001477  88.2856 271.8302 15.06407445293076
STARLINK-1494,45760,53.0553,0.0001617,15.45120851,429.9219573711125,432.1240397146412,1 45760U 20038AG  25278.58335647  .00268707  00000+0  54030-2 0  9993,2 45760  53.0553 185.9812 0001617 100.5154 100.6204 15.45120851  5796
STARLINK-1502,45764,53.0534,0.0001403,15.06404779,546.2252866825838,548.1685353780194,1 45764U 20038AL  25278.50204280  .00018016  00000+0  12251-2 0  9992,2 45764  53.0534 193.2821 0001403  84.8501 275.2648 15.06404779293098
STARLINK-1470,45772,53.0508,0.0004836,15.15862217,515.0270368135789,521.6973308241677,1 45772U 20038AU  25278.13987633  .00034216  00000+0  17744-2 0  9992,2 45772  53.0508 169.2883 0004836 115.4300 244.7194 15.15862217293395
STARLINK-1482,45773,53.054,0.0001482,15.0638999,546.2158961134892,548.2685785194299,1 45773U 20038AV  25278.13527992  .00014492  00000+0  99005-3 0  9996,2 45773  53.0540 174.9311 0001482  97.9393 262.1764 15.06389990293312
STARLINK-1485,45774,53.0441,0.0003171,15.85569771,312.59857534190996,316.84318580977015,1 45774U 20038AW  25278.58335647  .00304344  00000+0  11956-2 0  9996,2 45774  53.0441 117.3013 0003171 138.2486  20.8903 15.85569771  5883
